CCSDS_OMM_VERS = 2.0
CREATION_DATE  = 
ORIGINATOR     = 

OBJECT_NAME    = STARLINK-36570
OBJECT_ID      = 2026-020Z
CENTER_NAME    = EARTH
REF_FRAME      = TEME
TIME_SYSTEM    = UTC
MEAN_ELEMENT_THEORY = SGP/SGP4

EPOCH          = 2026-02-16T01:14:41.178336
MEAN_MOTION    = 15.76332076
ECCENTRICITY   = .0002031
INCLINATION    = 42.9982
RA_OF_ASC_NODE = 273.4459
ARG_OF_PERICENTER = 264.8877
MEAN_ANOMALY   = 95.1761

EPHEMERIS_TYPE = 0
CLASSIFICATION_TYPE = U
NORAD_CAT_ID   = 67640
ELEMENT_SET_NO = 999
REV_AT_EPOCH   = 267
BSTAR          = .4244E-3
MEAN_MOTION_DOT = .69083E-3
MEAN_MOTION_DDOT = 0

CCSDS_OMM_VERS = 2.0
CREATION_DATE  = 
ORIGINATOR     = 

OBJECT_NAME    = STARLINK-36514
OBJECT_ID      = 2026-020AA
CENTER_NAME    = EARTH
REF_FRAME      = TEME
TIME_SYSTEM    = UTC
MEAN_ELEMENT_THEORY = SGP/SGP4

EPOCH          = 2026-02-15T23:21:18.210816
MEAN_MOTION    = 15.82076642
ECCENTRICITY   = .0002102
INCLINATION    = 42.9971
RA_OF_ASC_NODE = 273.7083
ARG_OF_PERICENTER = 287.5900
MEAN_ANOMALY   = 72.4742

EPHEMERIS_TYPE = 0
CLASSIFICATION_TYPE = U
NORAD_CAT_ID   = 67641
ELEMENT_SET_NO = 999
REV_AT_EPOCH   = 266
BSTAR          = .15176E-2
MEAN_MOTION_DOT = .33254E-2
MEAN_MOTION_DDOT = 0

CCSDS_OMM_VERS = 2.0
CREATION_DATE  = 
ORIGINATOR     = 

OBJECT_NAME    = STARLINK-36556
OBJECT_ID      = 2026-020AB
CENTER_NAME    = EARTH
REF_FRAME      = TEME
TIME_SYSTEM    = UTC
MEAN_ELEMENT_THEORY = SGP/SGP4

EPOCH          = 2026-02-14T21:35:48.513120
MEAN_MOTION    = 15.81195695
ECCENTRICITY   = .00009655
INCLINATION    = 42.9973
RA_OF_ASC_NODE = 280.2837
ARG_OF_PERICENTER = 131.0329
MEAN_ANOMALY   = 229.0626

EPHEMERIS_TYPE = 0
CLASSIFICATION_TYPE = U
NORAD_CAT_ID   = 67642
ELEMENT_SET_NO = 999
REV_AT_EPOCH   = 249
BSTAR          = .20882971E-2
MEAN_MOTION_DOT = .44532E-2
MEAN_MOTION_DDOT = 0

CCSDS_OMM_VERS = 2.0
CREATION_DATE  = 
ORIGINATOR     = 

OBJECT_NAME    = STARLINK-36533
OBJECT_ID      = 2026-020AC
CENTER_NAME    = EARTH
REF_FRAME      = TEME
TIME_SYSTEM    = UTC
MEAN_ELEMENT_THEORY = SGP/SGP4

EPOCH          = 2026-02-15T22:15:21.608352
MEAN_MOTION    = 15.76405084
ECCENTRICITY   = .0001831
INCLINATION    = 42.9970
RA_OF_ASC_NODE = 274.2347
ARG_OF_PERICENTER = 284.6112
MEAN_ANOMALY   = 75.4554

EPHEMERIS_TYPE = 0
CLASSIFICATION_TYPE = U
NORAD_CAT_ID   = 67643
ELEMENT_SET_NO = 999
REV_AT_EPOCH   = 265
BSTAR          = .1361E-2
MEAN_MOTION_DOT = .227581E-2
MEAN_MOTION_DDOT = 0

CCSDS_OMM_VERS = 2.0
CREATION_DATE  = 
ORIGINATOR     = 

OBJECT_NAME    = STARLINK-36623
OBJECT_ID      = 2026-020AD
CENTER_NAME    = EARTH
REF_FRAME      = TEME
TIME_SYSTEM    = UTC
MEAN_ELEMENT_THEORY = SGP/SGP4

EPOCH          = 2026-02-16T01:08:22.989984
MEAN_MOTION    = 15.76399194
ECCENTRICITY   = .0002089
INCLINATION    = 42.9975
RA_OF_ASC_NODE = 273.4091
ARG_OF_PERICENTER = 253.8716
MEAN_ANOMALY   = 106.1924

EPHEMERIS_TYPE = 0
CLASSIFICATION_TYPE = U
NORAD_CAT_ID   = 67644
ELEMENT_SET_NO = 999
REV_AT_EPOCH   = 267
BSTAR          = .10085E-2
MEAN_MOTION_DOT = .167258E-2
MEAN_MOTION_DDOT = 0

CCSDS_OMM_VERS = 2.0
CREATION_DATE  = 
ORIGINATOR     = 

OBJECT_NAME    = STARLINK-36619
OBJECT_ID      = 2026-020AE
CENTER_NAME    = EARTH
REF_FRAME      = TEME
TIME_SYSTEM    = UTC
MEAN_ELEMENT_THEORY = SGP/SGP4

EPOCH          = 2026-02-16T04:00:00.999936
MEAN_MOTION    = 15.76271836
ECCENTRICITY   = .0001942
INCLINATION    = 42.9979
RA_OF_ASC_NODE = 272.6564
ARG_OF_PERICENTER = 275.3057
MEAN_ANOMALY   = 54.4011

EPHEMERIS_TYPE = 0
CLASSIFICATION_TYPE = U
NORAD_CAT_ID   = 67645
ELEMENT_SET_NO = 999
REV_AT_EPOCH   = 393
BSTAR          = .16526E-2
MEAN_MOTION_DOT = .276431E-2
MEAN_MOTION_DDOT = 0

CCSDS_OMM_VERS = 2.0
CREATION_DATE  = 
ORIGINATOR     = 

OBJECT_NAME    = ALSAT-3B
OBJECT_ID      = 2026-021A
CENTER_NAME    = EARTH
REF_FRAME      = TEME
TIME_SYSTEM    = UTC
MEAN_ELEMENT_THEORY = SGP/SGP4

EPOCH          = 2026-02-16T04:07:22.457280
MEAN_MOTION    = 15.23615594
ECCENTRICITY   = .0012107
INCLINATION    = 97.4715
RA_OF_ASC_NODE = 121.6014
ARG_OF_PERICENTER = 205.1440
MEAN_ANOMALY   = 154.9209

EPHEMERIS_TYPE = 0
CLASSIFICATION_TYPE = U
NORAD_CAT_ID   = 67646
ELEMENT_SET_NO = 999
REV_AT_EPOCH   = 244
BSTAR          = .31967E-3
MEAN_MOTION_DOT = .7599E-4
MEAN_MOTION_DDOT = 0

CCSDS_OMM_VERS = 2.0
CREATION_DATE  = 
ORIGINATOR     = 

OBJECT_NAME    = CZ-2C R/B
OBJECT_ID      = 2026-021B
CENTER_NAME    = EARTH
REF_FRAME      = TEME
TIME_SYSTEM    = UTC
MEAN_ELEMENT_THEORY = SGP/SGP4

EPOCH          = 2026-02-16T04:11:47.467680
MEAN_MOTION    = 15.23496081
ECCENTRICITY   = .015356
INCLINATION    = 97.6556
RA_OF_ASC_NODE = 122.2108
ARG_OF_PERICENTER = 86.0112
MEAN_ANOMALY   = 275.8662

EPHEMERIS_TYPE = 0
CLASSIFICATION_TYPE = U
NORAD_CAT_ID   = 67647
ELEMENT_SET_NO = 999
REV_AT_EPOCH   = 242
BSTAR          = .4267E-3
MEAN_MOTION_DOT = .14144E-3
MEAN_MOTION_DDOT = 0

CCSDS_OMM_VERS = 2.0
CREATION_DATE  = 
ORIGINATOR     = 

OBJECT_NAME    = STARLINK-36719
OBJECT_ID      = 2026-022A
CENTER_NAME    = EARTH
REF_FRAME      = TEME
TIME_SYSTEM    = UTC
MEAN_ELEMENT_THEORY = SGP/SGP4

EPOCH          = 2026-02-16T04:00:00.999936
MEAN_MOTION    = 15.75192314
ECCENTRICITY   = .0001363
INCLINATION    = 97.2837
RA_OF_ASC_NODE = 80.0703
ARG_OF_PERICENTER = 71.9519
MEAN_ANOMALY   = 154.0193

EPHEMERIS_TYPE = 0
CLASSIFICATION_TYPE = U
NORAD_CAT_ID   = 67648
ELEMENT_SET_NO = 999
REV_AT_EPOCH   = 343
BSTAR          = -.82389E-4
MEAN_MOTION_DOT = -.12402E-3
MEAN_MOTION_DDOT = 0

CCSDS_OMM_VERS = 2.0
CREATION_DATE  = 
ORIGINATOR     = 

OBJECT_NAME    = STARLINK-36342
OBJECT_ID      = 2026-022B
CENTER_NAME    = EARTH
REF_FRAME      = TEME
TIME_SYSTEM    = UTC
MEAN_ELEMENT_THEORY = SGP/SGP4

EPOCH          = 2026-02-16T04:00:00.999936
MEAN_MOTION    = 15.75212046
ECCENTRICITY   = .0001018
INCLINATION    = 97.2836
RA_OF_ASC_NODE = 80.0714
ARG_OF_PERICENTER = 89.1162
MEAN_ANOMALY   = 140.8496

EPHEMERIS_TYPE = 0
CLASSIFICATION_TYPE = U
NORAD_CAT_ID   = 67649
ELEMENT_SET_NO = 999
REV_AT_EPOCH   = 343
BSTAR          = -.35586E-3
MEAN_MOTION_DOT = -.52929E-3
MEAN_MOTION_DDOT = 0

CCSDS_OMM_VERS = 2.0
CREATION_DATE  = 
ORIGINATOR     = 

OBJECT_NAME    = STARLINK-36703
OBJECT_ID      = 2026-022C
CENTER_NAME    = EARTH
REF_FRAME      = TEME
TIME_SYSTEM    = UTC
MEAN_ELEMENT_THEORY = SGP/SGP4

EPOCH          = 2026-02-16T04:00:00.999936
MEAN_MOTION    = 15.75273223
ECCENTRICITY   = .0001576
INCLINATION    = 97.2834
RA_OF_ASC_NODE = 80.0735
ARG_OF_PERICENTER = 91.7303
MEAN_ANOMALY   = 144.2279

EPHEMERIS_TYPE = 0
CLASSIFICATION_TYPE = U
NORAD_CAT_ID   = 67650
ELEMENT_SET_NO = 999
REV_AT_EPOCH   = 343
BSTAR          = -.1491E-2
MEAN_MOTION_DOT = -.217744E-2
MEAN_MOTION_DDOT = 0

CCSDS_OMM_VERS = 2.0
CREATION_DATE  = 
ORIGINATOR     = 

OBJECT_NAME    = STARLINK-36696
OBJECT_ID      = 2026-022D
CENTER_NAME    = EARTH
REF_FRAME      = TEME
TIME_SYSTEM    = UTC
MEAN_ELEMENT_THEORY = SGP/SGP4

EPOCH          = 2026-02-16T04:00:00.999936
MEAN_MOTION    = 15.75209628
ECCENTRICITY   = .0001701
INCLINATION    = 97.2833
RA_OF_ASC_NODE = 80.0781
ARG_OF_PERICENTER = 88.5976
MEAN_ANOMALY   = 157.3634

EPHEMERIS_TYPE = 0
CLASSIFICATION_TYPE = U
NORAD_CAT_ID   = 67651
ELEMENT_SET_NO = 999
REV_AT_EPOCH   = 343
BSTAR          = -.25131E-3
MEAN_MOTION_DOT = -.37484E-3
MEAN_MOTION_DDOT = 0

