STARLINK-36570          
1 67640U 26020Z   26047.05186549  .00069083  00000+0  42440-3 0  9992
2 67640  42.9982 273.4459 0002031 264.8877  95.1761 15.76332076  2675
STARLINK-36514          
1 67641U 26020AA  26046.97312744  .00332540  00000+0  15176-2 0  9997
2 67641  42.9971 273.7083 0002102 287.5900  72.4742 15.82076642  2665
STARLINK-36556          
1 67642U 26020AB  26045.89986705  .00445320  00000+0  20883-2 0  9994
2 67642  42.9973 280.2837 0000965 131.0329 229.0626 15.81195695  2492
STARLINK-36533          
1 67643U 26020AC  26046.92733343  .00227581  00000+0  13610-2 0  9995
2 67643  42.9970 274.2347 0001831 284.6112  75.4554 15.76405084  2658
STARLINK-36623          
1 67644U 26020AD  26047.04748831  .00167258  00000+0  10085-2 0  9995
2 67644  42.9975 273.4091 0002089 253.8716 106.1924 15.76399194  2674
STARLINK-36619          
1 67645U 26020AE  26047.16667824  .00276431  00000+0  16526-2 0  9991
2 67645  42.9979 272.6564 0001942 275.3057  54.4011 15.76271836  3933
ALSAT-3B                
1 67646U 26021A   26047.17178770  .00007599  00000+0  31967-3 0  9995
2 67646  97.4715 121.6014 0012107 205.1440 154.9209 15.23615594  2447
CZ-2C R/B               
1 67647U 26021B   26047.17485495  .00014144  00000+0  42670-3 0  9998
2 67647  97.6556 122.2108 0153560  86.0112 275.8662 15.23496081  2427
STARLINK-36719          
1 67648U 26022A   26047.16667824 -.00012402  00000+0 -82389-4 0  9996
2 67648  97.2837  80.0703 0001363  71.9519 154.0193 15.75192314  3433
STARLINK-36342          
1 67649U 26022B   26047.16667824 -.00052929  00000+0 -35586-3 0  9991
2 67649  97.2836  80.0714 0001018  89.1162 140.8496 15.75212046  3431
STARLINK-36703          
1 67650U 26022C   26047.16667824 -.00217744  00000+0 -14910-2 0  9998
2 67650  97.2834  80.0735 0001576  91.7303 144.2279 15.75273223  3430
STARLINK-36696          
1 67651U 26022D   26047.16667824 -.00037484  00000+0 -25131-3 0  9998
2 67651  97.2833  80.0781 0001701  88.5976 157.3634 15.75209628  3439
